GSAT0206 (GALILEO 10)   
1 40890U 15045B   25010.22389910  .00000071  00000+0  00000+0 0  9994
2 40890  55.1266 236.0456 0004224  43.4882 316.6314  1.70473124 58124
GSAT0209 (GALILEO 12)   
1 41174U 15079A   25010.39268249 -.00000030  00000+0  00000+0 0  9992
2 41174  55.5252 115.6205 0002675 320.6273  39.3294  1.70474689 55866
GSAT0208 (GALILEO 11)   
1 41175U 15079B   25008.85284703 -.00000018  00000+0  00000+0 0  9990
2 41175  55.5225 115.6604 0002053 323.4528  36.5141  1.70474339 56418
GSAT0211 (GALILEO 14)   
1 41549U 16030A   25010.73623289  .00000070  00000+0  00000+0 0  9996
2 41549  55.2754 236.0652 0004085  18.5662 341.5363  1.70473172 53760
GSAT0210 (GALILEO 13)   
1 41550U 16030B   25010.99408240  .00000070  00000+0  00000+0 0  9994
2 41550  55.2754 236.0562 0000549 214.7163 145.3682  1.70473625 53766
GSAT0207 (GALILEO 15)   
1 41859U 16069A   25007.75328730 -.00000006  00000+0  00000+0 0  9993
2 41859  55.1904 115.6447 0002968 296.9232  63.0326  1.70474476 50442
GSAT0212 (GALILEO 16)   
1 41860U 16069B   25010.54022728 -.00000031  00000+0  00000+0 0  9992
2 41860  55.1894 115.5635 0001704 347.3549  12.6167  1.70474988 50743
GSAT0213 (GALILEO 17)   
1 41861U 16069C   25011.49503424 -.00000035  00000+0  00000+0 0  9999
2 41861  55.1915 115.5439 0003560 272.2515  87.6842  1.70474892 50624
